QIANFAN-33              
1 61566U 24185Q   26011.28036980  .00000303  00000+0  20923-3 0  9994
2 61566  88.9778  75.5185 0005806 218.2190 141.8576 13.96580328 73283
QIANFAN-34              
1 61567U 24185R   26011.26734260  .00000302  00000+0  18778-3 0  9993
2 61567  88.9755  75.0446 0004557 222.5018 137.5809 14.02336147 73493
QIANFAN-35              
1 61568U 24185S   26011.26826581  .00000762  00000+0  30128-3 0  9995
2 61568  88.9779  73.4170 0006894 169.7026 190.4311 14.28026186 74396
QIANFAN-36              
1 61569U 24185T   26011.26663100  .00000159  00000+0  21115-3 0  9998
2 61569  88.9764  77.9731 0004550 331.6811  28.4095 13.55599349 71922
QIANFAN-37              
1 62238U 24232B   26011.32197596  .00000026  00000+0  20979-4 0  9994
2 62238  88.9997  38.3406 0002176  76.3842 283.7551 13.50982228103165
QIANFAN-38              
1 62239U 24232C   26011.27262627  .00000034  00000+0  34518-4 0  9990
2 62239  89.0004  38.2633 0016464 108.2193 252.0752 13.50980104103216
QIANFAN-39              
1 62240U 24232D   26011.25876494  .00000139  00000+0  52768-4 0  9996
2 62240  88.9998  33.9300 0015513 350.2938   9.7953 14.25410873105598
QIANFAN-40              
1 62241U 24232E   26011.30554444  .00000042  00000+0  46322-4 0  9993
2 62241  89.0031  37.8527 0015410 114.9990 245.2763 13.50980251103584
